[{"OBJECT_NAME":"ORBITER SN3","OBJECT_ID":"2023-084AE","EPOCH":"2026-03-09T23:12:21.976128","MEAN_MOTION":15.32943891,"ECCENTRICITY":0.00075889,"INCLINATION":97.61,"RA_OF_ASC_NODE":206.6768,"ARG_OF_PERICENTER":331.7947,"MEAN_ANOMALY":28.2883,"EPHEMERIS_TYPE":0,"CLASSIFICATION_TYPE":"U","NORAD_CAT_ID":56960,"ELEMENT_SET_NO":999,"REV_AT_EPOCH":15228,"BSTAR":0.00032835432,"MEAN_MOTION_DOT":0.00010378,"MEAN_MOTION_DDOT":0},{"OBJECT_NAME":"STARLINK-35342","OBJECT_ID":"2025-243E","EPOCH":"2026-03-09T16:58:13.268064","MEAN_MOTION":15.3020522,"ECCENTRICITY":0.00010888,"INCLINATION":53.1573,"RA_OF_ASC_NODE":245.3681,"ARG_OF_PERICENTER":48.9697,"MEAN_ANOMALY":311.1397,"EPHEMERIS_TYPE":0,"CLASSIFICATION_TYPE":"U","NORAD_CAT_ID":66181,"ELEMENT_SET_NO":999,"REV_AT_EPOCH":2065,"BSTAR":0.00077066536,"MEAN_MOTION_DOT":0.00022539,"MEAN_MOTION_DDOT":0}]
